{
    "links": {
        "self": "http://www.neowsapp.com/rest/v1/neo/3766292?api_key=iIulBulltgU6a56xZRHN4H3l9WmuAYTsLGpBGhQ2"
    },
    "id": "3766292",
    "neo_reference_id": "3766292",
    "name": "(2017 AD3)",
    "designation": "2017 AD3",
    "nasa_jpl_url": "http://ssd.jpl.nasa.gov/sbdb.cgi?sstr=3766292",
    "absolute_magnitude_h": 23.4,
    "estimated_diameter": {
        "kilometers": {
            "estimated_diameter_min": 0.0555334912,
            "estimated_diameter_max": 0.1241766613
        },
        "meters": {
            "estimated_diameter_min": 55.5334911581,
            "estimated_diameter_max": 124.1766612574
        },
        "miles": {
            "estimated_diameter_min": 0.0345069009,
            "estimated_diameter_max": 0.0771597762
        },
        "feet": {
            "estimated_diameter_min": 182.1964991311,
            "estimated_diameter_max": 407.4037573197
        }
    },
    "is_potentially_hazardous_asteroid": false,
    "close_approach_data": [
        {
            "close_approach_date": "2016-12-29",
            "close_approach_date_full": "2016-Dec-29 11:08",
            "epoch_date_close_approach": 1483009680000,
            "relative_velocity": {
                "kilometers_per_second": "21.2771814776",
                "kilometers_per_hour": "76597.8533194698",
                "miles_per_hour": "47594.9272473117"
            },
            "miss_distance": {
                "astronomical": "0.072096495",
                "lunar": "28.045536555",
                "kilometers": "10785482.08646565",
                "miles": "6701787.80249997"
            },
            "orbiting_body": "Earth"
        }
    ],
    "orbital_data": {
        "orbit_id": "5",
        "orbit_determination_date": "2019-12-04 07:16:16",
        "first_observation_date": "2017-01-02",
        "last_observation_date": "2017-01-09",
        "data_arc_in_days": 7,
        "observations_used": 29,
        "orbit_uncertainty": "8",
        "minimum_orbit_intersection": ".0711886",
        "jupiter_tisserand_invariant": "4.491",
        "epoch_osculation": "2457756.5",
        "eccentricity": ".3012210761438461",
        "semi_major_axis": "1.399795016523592",
        "inclination": "38.55847645213984",
        "ascending_node_longitude": "276.1684266681594",
        "orbital_period": "604.9160274166826",
        "perihelion_distance": ".9781472552655625",
        "perihelion_argument": "227.5645867693587",
        "aphelion_distance": "1.82144277778162",
        "perihelion_time": "2457793.644523838614",
        "mean_anomaly": "337.894405213552",
        "mean_motion": ".595123924121161",
        "equinox": "J2000",
        "orbit_class": {
            "orbit_class_type": "APO",
            "orbit_class_description": "Near-Earth asteroid orbits which cross the Earth’s orbit similar to that of 1862 Apollo",
            "orbit_class_range": "a (semi-major axis) > 1.0 AU; q (perihelion) < 1.017 AU"
        }
    },
    "is_sentry_object": false
}